[{"OBJECT_NAME":"STARLINK-33967","OBJECT_ID":"2025-102F","EPOCH":"2026-03-09T13:34:48.218304","MEAN_MOTION":14.98340747,"ECCENTRICITY":0.0002934,"INCLINATION":70.0014,"RA_OF_ASC_NODE":114.7685,"ARG_OF_PERICENTER":276.8352,"MEAN_ANOMALY":83.2473,"EPHEMERIS_TYPE":0,"CLASSIFICATION_TYPE":"U","NORAD_CAT_ID":64027,"ELEMENT_SET_NO":999,"REV_AT_EPOCH":4587,"BSTAR":0.00038169,"MEAN_MOTION_DOT":4.465e-5,"MEAN_MOTION_DDOT":0},{"OBJECT_NAME":"COSMOS 921","OBJECT_ID":"1977-055A","EPOCH":"2026-03-09T22:48:25.254720","MEAN_MOTION":14.96601907,"ECCENTRICITY":0.00365313,"INCLINATION":75.8341,"RA_OF_ASC_NODE":6.4444,"ARG_OF_PERICENTER":239.9272,"MEAN_ANOMALY":119.8299,"EPHEMERIS_TYPE":0,"CLASSIFICATION_TYPE":"U","NORAD_CAT_ID":10095,"ELEMENT_SET_NO":999,"REV_AT_EPOCH":63955,"BSTAR":0.00011088241,"MEAN_MOTION_DOT":1.258e-5,"MEAN_MOTION_DDOT":0}]
